[{"OBJECT_NAME":"QIANFAN-86","OBJECT_ID":"2025-046P","EPOCH":"2026-03-06T14:50:18.533184","MEAN_MOTION":13.5100184,"ECCENTRICITY":0.00092758,"INCLINATION":88.9759,"RA_OF_ASC_NODE":311.1222,"ARG_OF_PERICENTER":248.7228,"MEAN_ANOMALY":111.2933,"EPHEMERIS_TYPE":0,"CLASSIFICATION_TYPE":"U","NORAD_CAT_ID":63172,"ELEMENT_SET_NO":999,"REV_AT_EPOCH":5887,"BSTAR":0.00025979944,"MEAN_MOTION_DOT":1.8e-6,"MEAN_MOTION_DDOT":0},{"OBJECT_NAME":"QIANFAN-87","OBJECT_ID":"2025-046Q","EPOCH":"2026-03-06T15:55:35.541120","MEAN_MOTION":13.51010285,"ECCENTRICITY":0.00099802,"INCLINATION":88.9756,"RA_OF_ASC_NODE":311.2258,"ARG_OF_PERICENTER":242.8702,"MEAN_ANOMALY":117.1432,"EPHEMERIS_TYPE":0,"CLASSIFICATION_TYPE":"U","NORAD_CAT_ID":63173,"ELEMENT_SET_NO":999,"REV_AT_EPOCH":5881,"BSTAR":0.00028120492,"MEAN_MOTION_DOT":1.94e-6,"MEAN_MOTION_DDOT":0},{"OBJECT_NAME":"QIANFAN-88","OBJECT_ID":"2025-046R","EPOCH":"2026-03-06T14:32:27.583584","MEAN_MOTION":13.5099859,"ECCENTRICITY":0.00103345,"INCLINATION":88.9758,"RA_OF_ASC_NODE":311.1886,"ARG_OF_PERICENTER":252.8203,"MEAN_ANOMALY":107.1818,"EPHEMERIS_TYPE":0,"CLASSIFICATION_TYPE":"U","NORAD_CAT_ID":63174,"ELEMENT_SET_NO":999,"REV_AT_EPOCH":5883,"BSTAR":0.00027413968,"MEAN_MOTION_DOT":1.89e-6,"MEAN_MOTION_DDOT":0},{"OBJECT_NAME":"QIANFAN-89","OBJECT_ID":"2025-046S","EPOCH":"2026-03-06T15:26:00.096288","MEAN_MOTION":13.51009132,"ECCENTRICITY":0.00148564,"INCLINATION":88.9759,"RA_OF_ASC_NODE":311.3738,"ARG_OF_PERICENTER":242.0363,"MEAN_ANOMALY":117.9284,"EPHEMERIS_TYPE":0,"CLASSIFICATION_TYPE":"U","NORAD_CAT_ID":63175,"ELEMENT_SET_NO":999,"REV_AT_EPOCH":5873,"BSTAR":0.00026977673,"MEAN_MOTION_DOT":1.86e-6,"MEAN_MOTION_DDOT":0},{"OBJECT_NAME":"QIANFAN-90","OBJECT_ID":"2025-046T","EPOCH":"2026-03-06T14:20:52.443744","MEAN_MOTION":13.51009042,"ECCENTRICITY":0.00118114,"INCLINATION":88.9759,"RA_OF_ASC_NODE":311.351,"ARG_OF_PERICENTER":240.0405,"MEAN_ANOMALY":119.9574,"EPHEMERIS_TYPE":0,"CLASSIFICATION_TYPE":"U","NORAD_CAT_ID":63176,"ELEMENT_SET_NO":999,"REV_AT_EPOCH":5874,"BSTAR":0.00031240658,"MEAN_MOTION_DOT":2.14e-6,"MEAN_MOTION_DDOT":0},{"OBJECT_NAME":"QIANFAN-91","OBJECT_ID":"2025-233A","EPOCH":"2026-03-06T15:07:44.025024","MEAN_MOTION":13.51004572,"ECCENTRICITY":0.00019622,"INCLINATION":88.9932,"RA_OF_ASC_NODE":53.5581,"ARG_OF_PERICENTER":92.2353,"MEAN_ANOMALY":267.9023,"EPHEMERIS_TYPE":0,"CLASSIFICATION_TYPE":"U","NORAD_CAT_ID":66033,"ELEMENT_SET_NO":999,"REV_AT_EPOCH":1933,"BSTAR":3.1805899e-5,"MEAN_MOTION_DOT":3.3e-7,"MEAN_MOTION_DDOT":0},{"OBJECT_NAME":"QIANFAN-92","OBJECT_ID":"2025-233B","EPOCH":"2026-03-06T15:19:29.529408","MEAN_MOTION":13.51005897,"ECCENTRICITY":0.00019573,"INCLINATION":88.9916,"RA_OF_ASC_NODE":53.5458,"ARG_OF_PERICENTER":85.9053,"MEAN_ANOMALY":274.2321,"EPHEMERIS_TYPE":0,"CLASSIFICATION_TYPE":"U","NORAD_CAT_ID":66034,"ELEMENT_SET_NO":999,"REV_AT_EPOCH":1933,"BSTAR":-2.3527e-6,"MEAN_MOTION_DOT":1.1e-7,"MEAN_MOTION_DDOT":0},{"OBJECT_NAME":"QIANFAN-93","OBJECT_ID":"2025-233C","EPOCH":"2026-03-06T13:44:41.883936","MEAN_MOTION":13.51004969,"ECCENTRICITY":0.0001932,"INCLINATION":88.9942,"RA_OF_ASC_NODE":53.5766,"ARG_OF_PERICENTER":90.6671,"MEAN_ANOMALY":269.4702,"EPHEMERIS_TYPE":0,"CLASSIFICATION_TYPE":"U","NORAD_CAT_ID":66035,"ELEMENT_SET_NO":999,"REV_AT_EPOCH":1932,"BSTAR":3.6931923e-5,"MEAN_MOTION_DOT":3.6e-7,"MEAN_MOTION_DDOT":0},{"OBJECT_NAME":"QIANFAN-94","OBJECT_ID":"2025-233D","EPOCH":"2026-03-06T13:26:42.468864","MEAN_MOTION":13.50991879,"ECCENTRICITY":0.00020595,"INCLINATION":88.9939,"RA_OF_ASC_NODE":53.4846,"ARG_OF_PERICENTER":87.7288,"MEAN_ANOMALY":272.4099,"EPHEMERIS_TYPE":0,"CLASSIFICATION_TYPE":"U","NORAD_CAT_ID":66036,"ELEMENT_SET_NO":999,"REV_AT_EPOCH":1937,"BSTAR":-2.007254e-6,"MEAN_MOTION_DOT":1.1e-7,"MEAN_MOTION_DDOT":0},{"OBJECT_NAME":"QIANFAN-95","OBJECT_ID":"2025-233E","EPOCH":"2026-03-06T15:25:13.301184","MEAN_MOTION":13.51015242,"ECCENTRICITY":0.00020811,"INCLINATION":88.9937,"RA_OF_ASC_NODE":53.0225,"ARG_OF_PERICENTER":93.2104,"MEAN_ANOMALY":266.9285,"EPHEMERIS_TYPE":0,"CLASSIFICATION_TYPE":"U","NORAD_CAT_ID":66037,"ELEMENT_SET_NO":999,"REV_AT_EPOCH":1963,"BSTAR":-7.45865e-7,"MEAN_MOTION_DOT":1.2e-7,"MEAN_MOTION_DDOT":0},{"OBJECT_NAME":"QIANFAN-96","OBJECT_ID":"2025-233F","EPOCH":"2026-03-06T14:14:23.318016","MEAN_MOTION":13.51004705,"ECCENTRICITY":0.00019664,"INCLINATION":88.9934,"RA_OF_ASC_NODE":53.5735,"ARG_OF_PERICENTER":94.264,"MEAN_ANOMALY":265.8736,"EPHEMERIS_TYPE":0,"CLASSIFICATION_TYPE":"U","NORAD_CAT_ID":66038,"ELEMENT_SET_NO":999,"REV_AT_EPOCH":1932,"BSTAR":1.6711373e-5,"MEAN_MOTION_DOT":2.3e-7,"MEAN_MOTION_DDOT":0},{"OBJECT_NAME":"QIANFAN-97","OBJECT_ID":"2025-233G","EPOCH":"2026-03-06T13:50:40.136352","MEAN_MOTION":13.51004137,"ECCENTRICITY":0.00019513,"INCLINATION":88.9937,"RA_OF_ASC_NODE":53.5559,"ARG_OF_PERICENTER":92.106,"MEAN_ANOMALY":268.0315,"EPHEMERIS_TYPE":0,"CLASSIFICATION_TYPE":"U","NORAD_CAT_ID":66039,"ELEMENT_SET_NO":999,"REV_AT_EPOCH":1933,"BSTAR":2.7813754e-5,"MEAN_MOTION_DOT":3.0e-7,"MEAN_MOTION_DDOT":0},{"OBJECT_NAME":"QIANFAN-98","OBJECT_ID":"2025-233H","EPOCH":"2026-03-06T14:02:26.583360","MEAN_MOTION":13.51004593,"ECCENTRICITY":0.00024553,"INCLINATION":88.9927,"RA_OF_ASC_NODE":53.2971,"ARG_OF_PERICENTER":84.5236,"MEAN_ANOMALY":275.6195,"EPHEMERIS_TYPE":0,"CLASSIFICATION_TYPE":"U","NORAD_CAT_ID":66040,"ELEMENT_SET_NO":999,"REV_AT_EPOCH":1947,"BSTAR":3.3442048e-5,"MEAN_MOTION_DOT":3.4e-7,"MEAN_MOTION_DDOT":0},{"OBJECT_NAME":"QIANFAN-99","OBJECT_ID":"2025-233J","EPOCH":"2026-03-06T14:08:26.156832","MEAN_MOTION":13.51004912,"ECCENTRICITY":0.00023461,"INCLINATION":88.9938,"RA_OF_ASC_NODE":53.558,"ARG_OF_PERICENTER":88.1042,"MEAN_ANOMALY":272.0378,"EPHEMERIS_TYPE":0,"CLASSIFICATION_TYPE":"U","NORAD_CAT_ID":66041,"ELEMENT_SET_NO":999,"REV_AT_EPOCH":1933,"BSTAR":4.8762439e-5,"MEAN_MOTION_DOT":4.4e-7,"MEAN_MOTION_DDOT":0},{"OBJECT_NAME":"QIANFAN-100","OBJECT_ID":"2025-233K","EPOCH":"2026-03-06T13:56:32.655264","MEAN_MOTION":13.51005674,"ECCENTRICITY":0.00019329,"INCLINATION":88.9949,"RA_OF_ASC_NODE":53.4743,"ARG_OF_PERICENTER":91.1366,"MEAN_ANOMALY":269.0006,"EPHEMERIS_TYPE":0,"CLASSIFICATION_TYPE":"U","NORAD_CAT_ID":66042,"ELEMENT_SET_NO":999,"REV_AT_EPOCH":1938,"BSTAR":3.3052492e-5,"MEAN_MOTION_DOT":3.3e-7,"MEAN_MOTION_DDOT":0},{"OBJECT_NAME":"QIANFAN-101","OBJECT_ID":"2025-233L","EPOCH":"2026-03-06T14:52:24.904416","MEAN_MOTION":14.2673596,"ECCENTRICITY":0.00169664,"INCLINATION":88.9938,"RA_OF_ASC_NODE":52.3384,"ARG_OF_PERICENTER":116.0321,"MEAN_ANOMALY":244.2622,"EPHEMERIS_TYPE":0,"CLASSIFICATION_TYPE":"U","NORAD_CAT_ID":66043,"ELEMENT_SET_NO":999,"REV_AT_EPOCH":2000,"BSTAR":0.00030459689,"MEAN_MOTION_DOT":7.53e-6,"MEAN_MOTION_DDOT":0},{"OBJECT_NAME":"QIANFAN-102","OBJECT_ID":"2025-233M","EPOCH":"2026-03-06T14:25:59.733120","MEAN_MOTION":13.50992506,"ECCENTRICITY":0.00021,"INCLINATION":88.9936,"RA_OF_ASC_NODE":53.4688,"ARG_OF_PERICENTER":88.3168,"MEAN_ANOMALY":271.8224,"EPHEMERIS_TYPE":0,"CLASSIFICATION_TYPE":"U","NORAD_CAT_ID":66044,"ELEMENT_SET_NO":999,"REV_AT_EPOCH":1938,"BSTAR":2.5897399e-5,"MEAN_MOTION_DOT":2.9e-7,"MEAN_MOTION_DDOT":0}]
