QIANFAN-86              
1 63172U 25046P   26065.61827006  .00000180  00000+0  25980-3 0  9990
2 63172  88.9759 311.1222 0009275 248.7228 111.2933 13.51001840 58876
QIANFAN-87              
1 63173U 25046Q   26065.66360580  .00000194  00000+0  28120-3 0  9999
2 63173  88.9756 311.2258 0009980 242.8702 117.1432 13.51010285 58815
QIANFAN-88              
1 63174U 25046R   26065.60587481  .00000189  00000+0  27414-3 0  9994
2 63174  88.9758 311.1886 0010334 252.8203 107.1818 13.50998590 58838
QIANFAN-89              
1 63175U 25046S   26065.64305667  .00000186  00000+0  26978-3 0  9994
2 63175  88.9759 311.3738 0014856 242.0363 117.9284 13.51009132 58730
QIANFAN-90              
1 63176U 25046T   26065.59782921  .00000214  00000+0  31241-3 0  9992
2 63176  88.9759 311.3510 0011811 240.0405 119.9574 13.51009042 58747
QIANFAN-91              
1 66033U 25233A   26065.63037066  .00000033  00000+0  31806-4 0  9990
2 66033  88.9932  53.5581 0001962  92.2353 267.9023 13.51004572 19331
QIANFAN-92              
1 66034U 25233B   26065.63853622  .00000011  00000+0 -23527-5 0  9994
2 66034  88.9916  53.5458 0001957  85.9053 274.2321 13.51005897 19330
QIANFAN-93              
1 66035U 25233C   26065.57270699  .00000036  00000+0  36932-4 0  9994
2 66035  88.9942  53.5766 0001932  90.6671 269.4702 13.51004969 19321
QIANFAN-94              
1 66036U 25233D   26065.56021376  .00000011  00000+0 -20073-5 0  9994
2 66036  88.9939  53.4846 0002059  87.7288 272.4099 13.50991879 19370
QIANFAN-95              
1 66037U 25233E   26065.64251506  .00000012  00000+0 -74587-6 0  9995
2 66037  88.9937  53.0225 0002081  93.2104 266.9285 13.51015242 19636
QIANFAN-96              
1 66038U 25233F   26065.59332544  .00000023  00000+0  16711-4 0  9996
2 66038  88.9934  53.5735 0001966  94.2640 265.8736 13.51004705 19329
QIANFAN-97              
1 66039U 25233G   26065.57685343  .00000030  00000+0  27814-4 0  9997
2 66039  88.9937  53.5559 0001951  92.1060 268.0315 13.51004137 19332
QIANFAN-98              
1 66040U 25233H   26065.58502990  .00000034  00000+0  33442-4 0  9994
2 66040  88.9927  53.2971 0002455  84.5236 275.6195 13.51004593 19479
QIANFAN-99              
1 66041U 25233J   26065.58919163  .00000044  00000+0  48762-4 0  9991
2 66041  88.9938  53.5580 0002346  88.1042 272.0378 13.51004912 19339
QIANFAN-100             
1 66042U 25233K   26065.58093351  .00000033  00000+0  33052-4 0  9998
2 66042  88.9949  53.4743 0001932  91.1366 269.0006 13.51005674 19380
QIANFAN-101             
1 66043U 25233L   26065.61973269  .00000753  00000+0  30460-3 0  9996
2 66043  88.9938  52.3384 0016966 116.0321 244.2622 14.26735960 20000
QIANFAN-102             
1 66044U 25233M   26065.60138580  .00000029  00000+0  25897-4 0  9990
2 66044  88.9936  53.4688 0002100  88.3168 271.8224 13.50992506 19383
